METEOR-M 2
1 40069U 14037A   15031.80211352 -.00000006  00000-0  17616-4 0  6254
2 40069  98.7779  87.5682 0005452 186.5918 173.5185 14.20594343 29408
